NORAD_CAT_ID,OBJECT_NAME,OBJECT_TYPE,EPOCH,MEAN_MOTION,ECCENTRICITY,INCLINATION,RA_OF_ASC_NODE,ARG_OF_PERICENTER,MEAN_ANOMALY,BSTAR,MEAN_MOTION_DOT,MEAN_MOTION_DDOT,TLE_LINE0,TLE_LINE1,TLE_LINE2,SEMIMAJOR_AXIS,PERIOD,APOGEE,PERIGEE,DECAYED
53564.0,STARLINK-4577,PAYLOAD,2024-07-04 23:09:40,15.0884219,0.0001163,53.2168,284.8147,90.312,269.8005,0.00013539,1.868e-05,0.0,0 STARLINK-4577,1 53564U 22101AP  24186.96505016  .00001868  00000-0  13539-3 0  9999,2 53564  53.2168 284.8147 0001163  90.3120 269.8005 15.08842190103945,6917.874,95.437,540.543,538.934,0.0
53564.0,STARLINK-4577,PAYLOAD,2024-07-05 13:28:08,15.08842487,0.0001305,53.2185,282.1434,93.8402,266.2739,0.00016153,2.284e-05,0.0,0 STARLINK-4577,1 53564U 22101AP  24187.56121090  .00002284  00000-0  16153-3 0  9990,2 53564  53.2185 282.1434 0001305  93.8402 266.2739 15.08842487104038,6917.873,95.437,540.641,538.835,0.0
53564.0,STARLINK-4577,PAYLOAD,2024-07-05 23:00:27,15.08839803,0.0001166,53.2159,280.3559,83.0325,277.08,4.2525e-06,-2.2e-06,0.0,0 STARLINK-4577,1 53564U 22101AP  24187.95865561 -.00000220  00000-0  42525-5 0  9994,2 53564  53.2159 280.3559 0001166  83.0325 277.0800 15.08839803104090,6917.881,95.438,540.553,538.939,0.0
53564.0,STARLINK-4577,PAYLOAD,2024-07-06 13:18:56,15.08834622,0.0001464,53.2185,277.6828,102.9502,257.1654,-1.4954e-05,-5.26e-06,0.0,0 STARLINK-4577,1 53564U 22101AP  24188.55482209 -.00000526  00000-0 -14954-4 0  9999,2 53564  53.2185 277.6828 0001464 102.9502 257.1654 15.08834622104186,6917.897,95.438,540.775,538.749,0.0
53564.0,STARLINK-4577,PAYLOAD,2024-07-06 14:54:19,15.08839006,0.0001526,53.2178,277.3841,97.7581,262.3585,1.316e-05,-7.9e-07,0.0,0 STARLINK-4577,1 53564U 22101AP  24188.62105851 -.00000079  00000-0  13160-4 0  9992,2 53564  53.2178 277.3841 0001526  97.7581 262.3585 15.08839006104190,6917.883,95.438,540.804,538.693,0.0
53564.0,STARLINK-4577,PAYLOAD,2024-07-07 09:58:57,15.08839884,0.0001448,53.2177,273.8153,95.7558,264.3599,2.9277e-05,1.78e-06,0.0,0 STARLINK-4577,1 53564U 22101AP  24189.41593839  .00000178  00000-0  29277-4 0  9992,2 53564  53.2177 273.8153 0001448  95.7558 264.3599 15.08839884104316,6917.881,95.438,540.747,538.744,0.0
53564.0,STARLINK-4577,PAYLOAD,2024-07-08 13:00:29,15.08845179,0.0001225,53.2163,268.7568,86.0246,274.0887,9.8622e-05,1.282e-05,0.0,0 STARLINK-4577,1 53564U 22101AP  24190.54201335  .00001282  00000-0  98622-4 0  9992,2 53564  53.2163 268.7568 0001225  86.0246 274.0887 15.08845179104484,6917.865,95.437,540.577,538.882,0.0
53564.0,STARLINK-4577,PAYLOAD,2024-07-08 22:32:48,15.0884498,0.0001267,53.2167,266.9724,89.0072,271.1065,5.5717e-05,5.99e-06,0.0,0 STARLINK-4577,1 53564U 22101AP  24190.93945377  .00000599  00000-0  55717-4 0  9994,2 53564  53.2167 266.9724 0001267  89.0072 271.1065 15.08844980104540,6917.865,95.437,540.607,538.854,0.0
53564.0,STARLINK-4577,PAYLOAD,2024-07-09 11:15:54,15.08829904,0.0001223,53.2165,264.5935,94.2155,265.8977,0.0002465,3.636e-05,0.0,0 STARLINK-4577,1 53564U 22101AP  24191.46937929  .00003636  00000-0  24650-3 0  9993,2 53564  53.2165 264.5935 0001223  94.2155 265.8977 15.08829904104628,6917.911,95.438,540.622,538.93,0.0
53564.0,STARLINK-4577,PAYLOAD,2024-07-09 14:26:39,15.08848567,0.0001324,53.2166,263.9989,90.034,270.0803,6.4214e-05,7.34e-06,0.0,0 STARLINK-4577,1 53564U 22101AP  24191.60185039  .00000734  00000-0  64214-4 0  9993,2 53564  53.2166 263.9989 0001324  90.0340 270.0803 15.08848567104647,6917.854,95.437,540.635,538.803,0.0
53564.0,STARLINK-4577,PAYLOAD,2024-07-10 04:45:08,15.0883694,0.000133,53.2145,261.321,89.4979,270.6165,-3.7058e-05,-8.78e-06,0.0,0 STARLINK-4577,1 53564U 22101AP  24192.19802057 -.00000878  00000-0 -37058-4 0  9991,2 53564  53.2145 261.3210 0001330  89.4979 270.6165 15.08836940104739,6917.89,95.438,540.675,538.835,0.0
53564.0,STARLINK-4577,PAYLOAD,2024-07-10 11:06:41,15.08841216,0.0001345,53.215,260.1305,94.2853,265.8293,-3.1022e-05,-7.82e-06,0.0,0 STARLINK-4577,1 53564U 22101AP  24192.46297737 -.00000782  00000-0 -31022-4 0  9993,2 53564  53.2150 260.1305 0001345  94.2853 265.8293 15.08841216104772,6917.877,95.437,540.672,538.811,0.0
53564.0,STARLINK-4577,PAYLOAD,2024-07-11 04:35:55,15.0884561,0.0001134,53.2163,256.8612,94.1522,265.96,9.6064e-05,1.242e-05,0.0,0 STARLINK-4577,1 53564U 22101AP  24193.19160903  .00001242  00000-0  96064-4 0  9995,2 53564  53.2163 256.8612 0001134  94.1522 265.9600 15.08845610104884,6917.863,95.437,540.513,538.944,0.0
53564.0,STARLINK-4577,PAYLOAD,2024-07-11 10:57:27,15.0885524,0.000126,53.2167,255.6729,92.9315,267.1821,0.00010896,1.447e-05,0.0,0 STARLINK-4577,1 53564U 22101AP  24193.45656278  .00001447  00000-0  10896-3 0  9994,2 53564  53.2167 255.6729 0001260  92.9315 267.1821 15.08855240104924,6917.834,95.437,540.57,538.827,0.0
53564.0,STARLINK-4577,PAYLOAD,2024-07-12 10:48:15,15.08834352,0.0001438,53.217,251.2127,94.6298,265.4859,4.3112e-05,3.98e-06,0.0,0 STARLINK-4577,1 53564U 22101AP  24194.45017951  .00000398  00000-0  43112-4 0  9996,2 53564  53.2170 251.2127 0001438  94.6298 265.4859 15.08834352105078,6917.898,95.438,540.757,538.768,0.0
53564.0,STARLINK-4577,PAYLOAD,2024-07-13 10:39:02,15.08841459,0.0001383,53.2165,246.7539,101.8611,258.2537,-2.6836e-05,-7.15e-06,0.0,0 STARLINK-4577,1 53564U 22101AP  24195.44377843 -.00000715  00000-0 -26836-4 0  9994,2 53564  53.2165 246.7539 0001383 101.8611 258.2537 15.08841459105223,6917.876,95.437,540.698,538.784,0.0
53564.0,STARLINK-4577,PAYLOAD,2024-07-13 20:11:21,15.08844733,0.0001432,53.2168,244.9694,93.4963,266.6192,-2.4253e-05,-6.74e-06,0.0,0 STARLINK-4577,1 53564U 22101AP  24195.84121675 -.00000674  00000-0 -24253-4 0  9993,2 53564  53.2168 244.9694 0001432  93.4963 266.6192 15.08844733105283,6917.866,95.437,540.722,538.74,0.0
53564.0,STARLINK-4577,PAYLOAD,2024-07-14 02:32:54,15.08834607,0.0001459,53.2162,243.7801,92.9141,267.2018,0.00011209,1.496e-05,0.0,0 STARLINK-4577,1 53564U 22101AP  24196.10618097  .00001496  00000-0  11209-3 0  9999,2 53564  53.2162 243.7801 0001459  92.9141 267.2018 15.08834607105323,6917.897,95.438,540.771,538.753,0.0
53564.0,STARLINK-4577,PAYLOAD,2024-07-14 10:29:49,15.08834937,0.0001449,53.2162,242.2928,90.4167,269.6992,0.00010697,1.415e-05,0.0,0 STARLINK-4577,1 53564U 22101AP  24196.43738299  .00001415  00000-0  10697-3 0  9993,2 53564  53.2162 242.2928 0001449  90.4167 269.6992 15.08834937105375,6917.896,95.438,540.763,538.758,0.0
53564.0,STARLINK-4577,PAYLOAD,2024-07-14 20:02:08,15.08836927,0.0001447,53.2161,240.5085,88.642,271.4738,0.00011859,1.6e-05,0.0,0 STARLINK-4577,1 53564U 22101AP  24196.83482302  .00001600  00000-0  11859-3 0  9995,2 53564  53.2161 240.5085 0001447  88.6420 271.4738 15.08836927105435,6917.89,95.438,540.756,538.754,0.0
53564.0,STARLINK-4577,PAYLOAD,2024-07-15 10:20:36,15.08842328,0.0001466,53.2161,237.8318,86.0326,274.0833,0.00010168,1.331e-05,0.0,0 STARLINK-4577,1 53564U 22101AP  24197.43098160  .00001331  00000-0  10168-3 0  9990,2 53564  53.2161 237.8318 0001466  86.0326 274.0833 15.08842328105528,6917.873,95.437,540.752,538.724,0.0
53564.0,STARLINK-4577,PAYLOAD,2024-07-15 19:52:55,15.08842007,0.0001484,53.2162,236.0479,86.7777,273.3385,6.2843e-05,7.12e-06,0.0,0 STARLINK-4577,1 53564U 22101AP  24197.82842213  .00000712  00000-0  62843-4 0  9999,2 53564  53.2162 236.0479 0001484  86.7777 273.3385 15.08842007105589,6917.874,95.437,540.766,538.713,0.0
53564.0,STARLINK-4577,PAYLOAD,2024-07-16 10:11:23,15.08841351,0.0001508,53.2162,233.3708,88.5027,271.6137,8.1992e-05,1.017e-05,0.0,0 STARLINK-4577,1 53564U 22101AP  24198.42458285  .00001017  00000-0  81992-4 0  9993,2 53564  53.2162 233.3708 0001508  88.5027 271.6137 15.08841351105676,6917.876,95.437,540.784,538.698,0.0
53564.0,STARLINK-4577,PAYLOAD,2024-07-17 02:05:15,15.08834875,0.0001529,53.2159,230.3973,87.6828,272.4339,1.1496e-05,-1.05e-06,0.0,0 STARLINK-4577,1 53564U 22101AP  24199.08699003 -.00000105  00000-0  11496-4 0  9991,2 53564  53.2159 230.3973 0001529  87.6828 272.4339 15.08834875105772,6917.896,95.438,540.819,538.703,0.0
53564.0,STARLINK-4577,PAYLOAD,2024-07-17 08:26:48,15.08832253,0.000153,53.2153,229.2076,88.0586,272.0581,-4.6399e-05,-1.026e-05,0.0,0 STARLINK-4577,1 53564U 22101AP  24199.35195387 -.00001026  00000-0 -46399-4 0  9991,2 53564  53.2153 229.2076 0001530  88.0586 272.0581 15.08832253105813,6917.904,95.438,540.828,538.711,0.0
53564.0,STARLINK-4577,PAYLOAD,2024-07-18 11:28:21,15.08855574,0.0001551,53.2164,224.1505,89.9641,270.1529,-2.8504e-05,-7.42e-06,0.0,0 STARLINK-4577,1 53564U 22101AP  24200.47802135 -.00000742  00000-0 -28504-4 0  9995,2 53564  53.2164 224.1505 0001551  89.9641 270.1529 15.08855574105981,6917.833,95.437,540.771,538.625,0.0
53564.0,STARLINK-4577,PAYLOAD,2024-07-19 04:57:36,15.08841423,0.0001423,53.216,220.8778,91.3493,268.7662,0.00011063,1.473e-05,0.0,0 STARLINK-4577,1 53564U 22101AP  24201.20666787  .00001473  00000-0  11063-3 0  9999,2 53564  53.2160 220.8778 0001423  91.3493 268.7662 15.08841423106094,6917.876,95.437,540.725,538.757,0.0
53564.0,STARLINK-4577,PAYLOAD,2024-07-19 11:19:08,15.08839979,0.0001412,53.2157,219.6897,87.2299,272.8854,0.00010405,1.368e-05,0.0,0 STARLINK-4577,1 53564U 22101AP  24201.47162821  .00001368  00000-0  10405-3 0  9990,2 53564  53.2157 219.6897 0001412  87.2299 272.8854 15.08839979106131,6917.88,95.438,540.722,538.769,0.0
53564.0,STARLINK-4577,PAYLOAD,2024-07-20 11:09:55,15.08843257,0.0001424,53.2157,215.2299,86.1735,273.942,3.4404e-05,2.6e-06,0.0,0 STARLINK-4577,1 53564U 22101AP  24202.46522693  .00000260  00000-0  34404-4 0  9993,2 53564  53.2157 215.2299 0001424  86.1735 273.9420 15.08843257106286,6917.87,95.437,540.721,538.75,0.0
53564.0,STARLINK-4577,PAYLOAD,2024-07-21 04:39:10,15.08834446,0.0001404,53.2155,211.959,86.3824,273.7329,-1.655e-06,-3.14e-06,0.0,0 STARLINK-4577,1 53564U 22101AP  24203.19387471 -.00000314  00000-0 -16550-5 0  9992,2 53564  53.2155 211.9590 0001404  86.3824 273.7329 15.08834446106398,6917.897,95.438,540.734,538.791,0.0
